Company,Address,City,State,ZIP,Phone
All-American Check Cashing Corp.,412 Soundview Avenue,Bronx,NY,10473,
BPC Check Cashing & Financial Services,1209 East 233rd Street,Bronx,NY,10466,
BPC Check Cashing & Financial Services,153 East 149th Street,Bronx,NY,10451,
BPC Check Cashing & Financial Services,603 Westchester Avenue,Bronx,NY,10455,
Castle Financial Services,689 Morris Park Avenue,Bronx,NY,10462,
Castle Financial Services,5824 Broadway,Bronx,NY,10463,
Castle Financial Services,1753 Crosby Avenue,Bronx,NY,10461,
"David's Check Cashing, Inc.",1998 Bruckner Boulevard,Bronx,NY,10473,
"David's Check Cashing, Inc.",3015 Third Ave,Bronx,NY,10455,
"David's Check Cashing, Inc.",868 Prospect Avenue,Bronx,NY,10459,
"David's Money Centers of the Bronx, LLC",279 East 161st Street,Bronx,NY,10451,
"David's Money Centers of the Bronx, LLC",3963 Laconia Avenue,Bronx,NY,10466,
"Eastchester Check Cashing, Inc.",189 193 West 231st Street,Bronx,NY,10463,
"Eastchester Check Cashing, Inc.",723 Burke Avenue,Bronx,NY,10467,
"Eastchester Check Cashing, Inc.",3445 Boston Road,Bronx,NY,10469,
"Eastchester Check Cashing, Inc.",2046-A Eastchester Road,Bronx,NY,10461,
Inner City Check Cashing & Payroll Services Corp.,2800 Boston Road,Bronx,NY,10469,
Inner City Check Cashing & Payroll Services Corp.,4063 Boston Road,Bronx,NY,10466,
Pay-O-Matic Check Cashing Corp.,1784 Westchester Avenue,Bronx,NY,10472,
Pay-O-Matic Check Cashing Corp.,890 East Tremont Avenue,Bronx,NY,10460,
Pay-O-Matic Check Cashing Corp.,3725A East Tremont Avenue,Bronx,NY,10465,
Pay-O-Matic Check Cashing Corp.,81 West Fordham Road,Bronx,NY,10468,
Pay-O-Matic Check Cashing Corp.,1865 Bruckner Blvd.,Bronx,NY,10472,
Pay-O-Matic Check Cashing Corp.,1283 Westchester Avenue,Bronx,NY,10459,
Pay-O-Matic Check Cashing Corp.,396 East 167th Street,Bronx,NY,10456,
Pay-O-Matic Check Cashing Corp.,269 East Tremont Avenue,Bronx,NY,10457,
Pay-O-Matic Check Cashing Corp.,120 Featherbed Lane,Bronx,NY,10452,
Pay-O-Matic Check Cashing Corp.,1500 Bruckner Boulevard,Bronx,NY,10473,
Pay-O-Matic Check Cashing Corp.,2187 White Plains Road,Bronx,NY,10462,
Pay-O-Matic Check Cashing Corp.,339 East Gun Hill Road,Bronx,NY,10467,
Pay-O-Matic Check Cashing Corp.,2441 Jerome Avenue,Bronx,NY,10468,
Pay-O-Matic Check Cashing Corp.,4551 Third Avenue,Bronx,NY,10458,
Pay-O-Matic Check Cashing Corp.,1908 Cross Bronx Expressway,Bronx,NY,10472,
Pay-O-Matic Check Cashing Corp.,977 Prospect Avenue,Bronx,NY,10459,
Pay-O-Matic Check Cashing Corp.,1030 Morris Avenue,Bronx,NY,10456,
Pay-O-Matic Check Cashing Corp.,4215 Third Avenue,Bronx,NY,10457,
Pay-O-Matic Check Cashing Corp.,271 East 149th Street,Bronx,NY,10451,
Pay-O-Matic Check Cashing Corp.,25 West 170th Street,Bronx,NY,10452,
Pay-O-Matic Check Cashing Corp.,620-A Castle Hill Avenue,Bronx,NY,10473,
Pay-O-Matic Check Cashing Corp.,5207 Broadway,Bronx,NY,10463,
Pay-O-Matic Check Cashing Corp.,11 East Gun Hill Road,Bronx,NY,10467,
Pay-O-Matic Check Cashing Corp.,936 East Gun Hill Road,Bronx,NY,10469,
Pay-O-Matic Check Cashing Corp.,1360 Bruckner Blvd.,Bronx,NY,10459,
Pay-O-Matic Check Cashing Corp.,1202 Elder Avenue,Bronx,NY,10472,
Pay-O-Matic Check Cashing Corp.,931 East 174th Street,Bronx,NY,10460,
Pay-O-Matic Check Cashing Corp.,2193 Grand Concourse,Bronx,NY,10453,
Pay-O-Matic Check Cashing Corp.,513 East 180th Street,Bronx,NY,10457,
Pay-O-Matic Check Cashing Corp.,664 East Tremont Avenue,Bronx,NY,10457,
Pay-O-Matic Check Cashing Corp.,3212 Third Avenue,Bronx,NY,10451,
Pay-O-Matic Check Cashing Corp.,3480 Baychester Avenue a/k/a 3084 Boston Road,Bronx,NY,10475,
Pay-O-Matic Check Cashing Corp.,3429 East Tremont Avenue,Bronx,NY,10465,
Pay-O-Matic Check Cashing Corp.,697 East Gun Hill Road,Bronx,NY,10467,
Pay-O-Matic Check Cashing Corp.,686A Nereid Avenue,Bronx,NY,10470,
Pay-O-Matic Check Cashing Corp.,1245 Southern Boulevard,Bronx,NY,10459,
Pay-O-Matic Check Cashing Corp.,1202 Morrison Avenue,Bronx,NY,10472,
Pay-O-Matic Check Cashing Corp.,350 Devoe Avenue,Bronx,NY,10460,
Pay-O-Matic Check Cashing Corp.,797 Southern Boulevard,Bronx,NY,10455,
Pay-O-Matic Check Cashing Corp.,164 East 174th Street,Bronx,NY,10457,
Pay-O-Matic Check Cashing Corp.,2356 Grand Concourse,Bronx,NY,10458,
Pay-O-Matic Check Cashing Corp.,157 & 159a East 170th Street,Bronx,NY,10452,
"PLS Check Cashers of New York, Inc.",1580 Jerome Avenue,Bronx,NY,10452,
"PLS Check Cashers of New York, Inc.",84 West Fordham Road,Bronx,NY,10468,
"PLS Check Cashers of New York, Inc.",2430 Creston Avenue,Bronx,NY,10468,
"PLS Check Cashers of New York, Inc.",2539 Webster Avenue,Bronx,NY,10458,
"PLS Check Cashers of New York, Inc.",416 East 149th Street,Bronx,NY,10455,
"PLS Check Cashers of New York, Inc.",738A East 233 Street,Bronx,NY,10466,
"PLS Check Cashers of New York, Inc.",1012 Garrison Avenue,Bronx,NY,10474,
"PLS Check Cashers of New York, Inc.",359 East 204th Street,Bronx,NY,10467,
"PLS Check Cashers of New York, Inc.",229 East Kingsbridge Road,Bronx,NY,10458,
"PLS Check Cashers of New York, Inc.",1045 Westchester Avenue,Bronx,NY,10459,
"Rite Check Cashing, Inc.",583 East 138th Street,Bronx,NY,10454,
"Rite Check Cashing, Inc.",1353 East Gunhill Road,Bronx,NY,10469,
"Rite Check Cashing, Inc.",715 East 138th Street,Bronx,NY,10454,
"Rite Check Cashing, Inc.",2591 Westchester Avenue,Bronx,NY,10461,
"Rite Check Cashing, Inc.",426 East 138th Street,Bronx,NY,10454,
"Rite Check Cashing, Inc.",1272 Castle Hill Avenue,Bronx,NY,10462,
"Rite Check Cashing, Inc.",143 Bruckner Boulevard,Bronx,NY,10454,
"Rite Check Cashing, Inc.",2418 Williamsbridge Road,Bronx,NY,10469,
The Check Cashing Place,1526 Union Port Road,Bronx,NY,10462,
The Check Cashing Place,1034 Ogden Avenue,Bronx,NY,10452,
The Check Cashing Place,36 W. Kingsbridge Road,Bronx,NY,10468,
The Check Cashing Place,1794 Jerome Avenue,Bronx,NY,10453,
The Check Cashing Place,241 East 167 Street,Bronx,NY,10456,
The Check Cashing Place,280-82 East 198th Street,Bronx,NY,10458,
The Check Cashing Place,2495 Third Avenue,Bronx,NY,10451,
The Check Cashing Place,3969 White Plains Road,Bronx,NY,10466,
The Check Cashing Place,1815 Grand Concourse,Bronx,NY,10453,
The Check Cashing Place,1570 Watson Avenue,Bronx,NY,10472,
The Check Cashing Place,15 E. 183rd Street,Bronx,NY,10453,
The Check Cashing Place,510 Claremont Parkway,Bronx,NY,10457,
The Check Cashing Place,929 Southern Boulevard,Bronx,NY,10459,
The Check Cashing Place,1488 Williamsbridge Road,Bronx,NY,10461,
The Check Cashing Place,84 East 161st Street,Bronx,NY,10451,
The Check Cashing Place,3775 White Plains Road,Bronx,NY,10467,
The Check Cashing Place,1801 University Avenue,Bronx,NY,10453,
The Check Cashing Place,837 Soundview Avenue,Bronx,NY,10473,
The Check Cashing Place,2686 Third Avenue,Bronx,NY,10454,
The Check Cashing Place,2292 Crotona Avenue,Bronx,NY,10458,
The Check Cashing Place,1661 Metropolitan Avenue,Bronx,NY,10462,
The Check Cashing Place,1213 Jerome Avenue,Bronx,NY,10452,
The Check Cashing Place,145 West Kingsbridge Road,Bronx,NY,10468,
The Check Cashing Place,2031 Jerome Avenue,Bronx,NY,10453,
The Check Cashing Place,535 Southern Boulevard,Bronx,NY,10455,
The Check Cashing Place,544 East Fordham Road,Bronx,NY,10458,
